{
  "norad_id": 57234,
  "name": "STARLINK-6368",
  "history": [
    {
      "epoch": "2026-03-28T20:54:07.177824",
      "apogee_km": 486.4492044645376,
      "perigee_km": 484.65366357019957,
      "latitude_deg": -11.43704762904478,
      "longitude_deg": -12.992024640087038,
      "semi_major_axis_km": 6863.688434017368,
      "eccentricity": 0.0001308,
      "inclination_deg": 43.0017,
      "raan_deg": 281.9884,
      "arg_perigee_deg": 265.9857,
      "mean_anomaly_deg": 94.0845,
      "mean_motion_rev_day": 15.26744697
    }
  ]
}